{
  "type": "FeatureCollection",
  "features": [
    {
      "type": "Feature",
      "properties": {
        "norad_id": 43719,
        "name": "HYSIS",
        "group": "resource",
        "lat": 24.25467562264004,
        "lon": 41.813827820191705,
        "alt_km": 632.2136872910924,
        "timestamp": "2025-12-08T10:52:02.607086+00:00",
        "meta_object_name": "HYSIS",
        "meta_object_id": "2018-096A",
        "meta_epoch": "2025-12-07T21:45:50.410944",
        "meta_mean_motion": 14.78624744,
        "meta_eccentricity": 0.00015295,
        "meta_inclination": 98.0101,
        "meta_ra_of_asc_node": 44.9082,
        "meta_arg_of_pericenter": 62.917,
        "meta_mean_anomaly": 297.2197,
        "meta_ephemeris_type": 0,
        "meta_classification_type": "U",
        "meta_norad_cat_id": 43719,
        "meta_element_set_no": 999,
        "meta_rev_at_epoch": 37915,
        "meta_bstar": 0.00028235996,
        "meta_mean_motion_dot": 2.015e-05,
        "meta_mean_motion_ddot": 0,
        "tle_line1": "1 43719U 18096A   25341.90683346  .00002015  00000+0  28236-3 0  9993",
        "tle_line2": "2 43719  98.0101  44.9082 0001529  62.9170 297.2197 14.78624744379153"
      },
      "geometry": {
        "type": "Point",
        "coordinates": [
          41.813827820191705,
          24.25467562264004
        ]
      }
    },
    {
      "type": "Feature",
      "properties": {
        "norad_id": 43783,
        "name": "KAZSTSAT",
        "group": "resource",
        "lat": -57.44304758151639,
        "lon": 29.657451527381667,
        "alt_km": 573.0875491032921,
        "timestamp": "2025-12-08T10:52:02.607096+00:00",
        "meta_object_name": "KAZSTSAT",
        "meta_object_id": "2018-099AB",
        "meta_epoch": "2025-12-07T15:54:20.758464",
        "meta_mean_motion": 14.99329446,
        "meta_eccentricity": 0.00061989,
        "meta_inclination": 97.4554,
        "meta_ra_of_asc_node": 17.0659,
        "meta_arg_of_pericenter": 350.6827,
        "meta_mean_anomaly": 9.4281,
        "meta_ephemeris_type": 0,
        "meta_classification_type": "U",
        "meta_norad_cat_id": 43783,
        "meta_element_set_no": 999,
        "meta_rev_at_epoch": 38260,
        "meta_bstar": 0.00025694618,
        "meta_mean_motion_dot": 3.085e-05,
        "meta_mean_motion_ddot": 0,
        "tle_line1": "1 43783U 18099AB  25341.66274026  .00003085  00000+0  25695-3 0  9995",
        "tle_line2": "2 43783  97.4554  17.0659 0006198 350.6827   9.4281 14.99329446382608"
      },
      "geometry": {
        "type": "Point",
        "coordinates": [
          29.657451527381667,
          -57.44304758151639
        ]
      }
    },
    {
      "type": "Feature",
      "properties": {
        "norad_id": 43831,
        "name": "SAUDISAT 5A",
        "group": "resource",
        "lat": -49.80592868311388,
        "lon": 51.49715357538579,
        "alt_km": 502.1540780075902,
        "timestamp": "2025-12-08T10:52:02.607107+00:00",
        "meta_object_name": "SAUDISAT 5A",
        "meta_object_id": "2018-102A",
        "meta_epoch": "2025-12-07T22:29:40.083936",
        "meta_mean_motion": 15.25566602,
        "meta_eccentricity": 0.00118172,
        "meta_inclination": 97.3355,
        "meta_ra_of_asc_node": 42.2213,
        "meta_arg_of_pericenter": 90.8122,
        "meta_mean_anomaly": 269.447,
        "meta_ephemeris_type": 0,
        "meta_classification_type": "U",
        "meta_norad_cat_id": 43831,
        "meta_element_set_no": 999,
        "meta_rev_at_epoch": 38649,
        "meta_bstar": 0.0003391575,
        "meta_mean_motion_dot": 8.555e-05,
        "meta_mean_motion_ddot": 0,
        "tle_line1": "1 43831U 18102A   25341.93726949  .00008555  00000+0  33916-3 0  9992",
        "tle_line2": "2 43831  97.3355  42.2213 0011817  90.8122 269.4470 15.25566602386497"
      },
      "geometry": {
        "type": "Point",
        "coordinates": [
          51.49715357538579,
          -49.80592868311388
        ]
      }
    },
    {
      "type": "Feature",
      "properties": {
        "norad_id": 43833,
        "name": "SAUDISAT 5B",
        "group": "resource",
        "lat": -3.641741546475523,
        "lon": 45.92803446812772,
        "alt_km": 492.3025784112124,
        "timestamp": "2025-12-08T10:52:02.607117+00:00",
        "meta_object_name": "SAUDISAT 5B",
        "meta_object_id": "2018-102C",
        "meta_epoch": "2025-12-07T22:17:34.157184",
        "meta_mean_motion": 15.25921547,
        "meta_eccentricity": 0.00125297,
        "meta_inclination": 97.345,
        "meta_ra_of_asc_node": 44.9429,
        "meta_arg_of_pericenter": 93.3575,
        "meta_mean_anomaly": 266.9097,
        "meta_ephemeris_type": 0,
        "meta_classification_type": "U",
        "meta_norad_cat_id": 43833,
        "meta_element_set_no": 999,
        "meta_rev_at_epoch": 38660,
        "meta_bstar": 0.00033501048,
        "meta_mean_motion_dot": 8.543e-05,
        "meta_mean_motion_ddot": 0,
        "tle_line1": "1 43833U 18102C   25341.92886756  .00008543  00000+0  33501-3 0  9993",
        "tle_line2": "2 43833  97.3450  44.9429 0012529  93.3575 266.9097 15.25921547386607"
      },
      "geometry": {
        "type": "Point",
        "coordinates": [
          45.92803446812772,
          -3.641741546475523
        ]
      }
    },
    {
      "type": "Feature",
      "properties": {
        "norad_id": 44622,
        "name": "GAOFEN-10R",
        "group": "resource",
        "lat": -63.977499517898444,
        "lon": 93.14052554010668,
        "alt_km": 633.3696477698313,
        "timestamp": "2025-12-08T10:52:02.607127+00:00",
        "meta_object_name": "GAOFEN-10R",
        "meta_object_id": "2019-066A",
        "meta_epoch": "2025-12-07T22:25:42.323232",
        "meta_mean_motion": 14.82765993,
        "meta_eccentricity": 0.00081116,
        "meta_inclination": 98.0275,
        "meta_ra_of_asc_node": 289.4221,
        "meta_arg_of_pericenter": 55.1755,
        "meta_mean_anomaly": 305.022,
        "meta_ephemeris_type": 0,
        "meta_classification_type": "U",
        "meta_norad_cat_id": 44622,
        "meta_element_set_no": 999,
        "meta_rev_at_epoch": 33403,
        "meta_bstar": 0.00034698538,
        "meta_mean_motion_dot": 2.751e-05,
        "meta_mean_motion_ddot": 0,
        "tle_line1": "1 44622U 19066A   25341.93451763  .00002751  00000+0  34699-3 0  9991",
        "tle_line2": "2 44622  98.0275 289.4221 0008111  55.1755 305.0220 14.82765993334037"
      },
      "geometry": {
        "type": "Point",
        "coordinates": [
          93.14052554010668,
          -63.977499517898444
        ]
      }
    },
    {
      "type": "Feature",
      "properties": {
        "norad_id": 44804,
        "name": "CARTOSAT-3",
        "group": "resource",
        "lat": -26.11401763340849,
        "lon": -141.59193441993074,
        "alt_km": 516.2967521879955,
        "timestamp": "2025-12-08T10:52:02.607137+00:00",
        "meta_object_name": "CARTOSAT-3",
        "meta_object_id": "2019-081A",
        "meta_epoch": "2025-12-07T22:53:56.639328",
        "meta_mean_motion": 15.19309339,
        "meta_eccentricity": 0.0013987,
        "meta_inclination": 97.4586,
        "meta_ra_of_asc_node": 41.5977,
        "meta_arg_of_pericenter": 102.0895,
        "meta_mean_anomaly": 258.1908,
        "meta_ephemeris_type": 0,
        "meta_classification_type": "U",
        "meta_norad_cat_id": 44804,
        "meta_element_set_no": 999,
        "meta_rev_at_epoch": 33443,
        "meta_bstar": 0.0002763087,
        "meta_mean_motion_dot": 5.78e-05,
        "meta_mean_motion_ddot": 0,
        "tle_line1": "1 44804U 19081A   25341.95412777  .00005780  00000+0  27631-3 0  9997",
        "tle_line2": "2 44804  97.4586  41.5977 0013987 102.0895 258.1908 15.19309339334430"
      },
      "geometry": {
        "type": "Point",
        "coordinates": [
          -141.59193441993074,
          -26.11401763340849
        ]
      }
    },
    {
      "type": "Feature",
      "properties": {
        "norad_id": 44819,
        "name": "GAOFEN-12 01",
        "group": "resource",
        "lat": -5.076375004576378,
        "lon": 168.14752779085867,
        "alt_km": 630.7787950111288,
        "timestamp": "2025-12-08T10:52:02.607147+00:00",
        "meta_object_name": "GAOFEN-12 01",
        "meta_object_id": "2019-082A",
        "meta_epoch": "2025-12-07T22:40:51.663360",
        "meta_mean_motion": 14.80648331,
        "meta_eccentricity": 0.00011893,
        "meta_inclination": 97.8125,
        "meta_ra_of_asc_node": 348.3519,
        "meta_arg_of_pericenter": 265.648,
        "meta_mean_anomaly": 94.4597,
        "meta_ephemeris_type": 0,
        "meta_classification_type": "U",
        "meta_norad_cat_id": 44819,
        "meta_element_set_no": 999,
        "meta_rev_at_epoch": 32579,
        "meta_bstar": 0.00011757981,
        "meta_mean_motion_dot": 8.52e-06,
        "meta_mean_motion_ddot": 0,
        "tle_line1": "1 44819U 19082A   25341.94504240  .00000852  00000+0  11758-3 0  9998",
        "tle_line2": "2 44819  97.8125 348.3519 0001189 265.6480  94.4597 14.80648331325795"
      },
      "geometry": {
        "type": "Point",
        "coordinates": [
          168.14752779085867,
          -5.076375004576378
        ]
      }
    }
  ]
}